satname,norad_id,inclination_deg,eccentricity,mean_motion_rev_per_day,perigee_km,apogee_km,l1,l2
STARLINK-1234,45190,53.0396,0.000693,15.71635504,349.55679635206343,358.8878463714709,1 45190U 20012N   26139.86575174  .00057809  00000+0  44122-3 0  9992,2 45190  53.0396 334.5807 0006930 162.0734 198.0529 15.71635504347047
STARLINK-1269,45197,53.1557,0.0002855,15.33274428,464.0967081951658,468.0047393854502,1 45197U 20012V   26139.96216252  .00037325  00000+0  11504-2 0  9997,2 45197  53.1557  68.0482 0002855  72.3032 287.8282 15.33274428345838
STARLINK-1154,45198,53.0422,0.0002411,15.5701701,394.66244488754273,397.9290763647168,1 45198U 20012W   26139.97944333  .00042043  00000+0  57531-3 0  9991,2 45198  53.0422  26.9324 0002411  56.5084 303.6157 15.57017010346361
STARLINK-1199,45201,53.1576,0.0002642,15.33241735,464.33975482050846,467.95627502239313,1 45201U 20012Z   26139.93278558  .00042617  00000+0  13123-2 0  9996,2 45201  53.1576  52.4483 0002642 117.9848 242.1422 15.33241735346070
STARLINK-1209,45206,53.0402,0.0009822,15.63107629,372.05012858554346,385.32323302411623,1 45206U 20012AE  26140.00002315  .00135870  00000+0  14419-2 0  9990,2 45206  53.0402 347.3761 0009822 154.9659  13.4860 15.63107629  5955
STARLINK-1231,45212,53.0379,0.0003814,15.26553362,483.5069127510942,488.74297176064647,1 45212U 20012AL  26139.96246408  .00029831  00000+0  11343-2 0  9995,2 45212  53.0379  46.9195 0003814  47.4771 312.6548 15.26553362346092
STARLINK-1271,45217,53.158,0.0002488,15.3335462,464.1093204438994,467.5148695135622,1 45217U 20012AR  26139.93241934  .00033179  00000+0  10219-2 0  9997,2 45217  53.1580  52.5947 0002488 104.2636 255.8642 15.33354620346073
STARLINK-1191,45222,53.1572,0.0004904,15.37076205,451.4096851977056,458.1113911031225,1 45222U 20012AW  26139.96008515  .00033775  00000+0  92361-3 0  9993,2 45222  53.1572  25.9911 0004904 121.8979 238.2503 15.37076205346452
STARLINK-1212,45223,53.0412,0.000408,15.65062764,370.30376945052103,375.8127447803263,1 45223U 20012AX  26139.94101511  .00039346  00000+0  39577-3 0  9992,2 45223  53.0412   3.4612 0004080  94.3771 265.7709 15.65062764346755
STARLINK-1215,45225,53.1571,0.0003003,15.33452309,463.46627749686195,467.5765787487917,1 45225U 20012AZ  26139.93277545  .00029988  00000+0  92223-3 0  9992,2 45225  53.1571  26.8677 0003003 158.1448 201.9683 15.33452309346394
STARLINK-1221,45227,53.0652,0.0002098,15.44183434,432.349307098244,435.20758681978714,1 45227U 20012BB  26139.76473295  .00013513  00000+0  29857-3 0  9995,2 45227  53.0652 292.1814 0002098 206.3144 153.7755 15.44183434347687
STARLINK-1222,45228,53.0531,9.37e-05,15.53785939,405.048408550414,406.31969661566836,1 45228U 20012BC  26139.92043278  .00025004  00000+0  38902-3 0  9997,2 45228  53.0531   0.1657 0000937  54.2492 305.8605 15.53785939346683
STARLINK-1226,45229,53.1596,0.0003434,15.41841735,438.33226614952946,443.0154254384215,1 45229U 20012BD  26139.93778367  .00044249  00000+0  10312-2 0  9999,2 45229  53.1596  24.0563 0003434 130.9360 229.1944 15.41841735346372
STARLINK-1227,45230,53.1553,0.0003593,15.41963846,437.8639754003989,442.76371417746395,1 45230U 20012BE  26139.94903914  .00035121  00000+0  81803-3 0  9993,2 45230  53.1553  24.1283 0003593 131.8763 228.2550 15.41963846346494
STARLINK-1246,45235,53.1558,0.0003262,15.3338581,463.48682201819884,467.9517538604505,1 45235U 20012BK  26139.77384035  .00039058  00000+0  11987-2 0  9994,2 45235  53.1558  68.5659 0003262 115.0240 245.1101 15.33385810345860
STARLINK-1270,45237,53.0441,0.0003616,15.5851014,389.52017103990147,394.4163111502603,1 45237U 20012BM  26139.88750170  .00063667  00000+0  81829-3 0  9991,2 45237  53.0441   4.3327 0003616 126.2399 233.8947 15.58510140346736
STARLINK-1279,45360,53.0359,0.0009227,15.71656608,347.9501613945995,360.3739460683555,1 45360U 20019A   26139.33557736  .00050328  00000+0  38432-3 0  9990,2 45360  53.0359 112.0066 0009227  45.2899 314.8868 15.71656608341739
STARLINK-1301,45361,53.0378,0.0006603,15.73979516,343.0956936916882,351.97761832181004,1 45361U 20019B   26139.91341377  .00062496  00000+0  43120-3 0  9996,2 45361  53.0378 112.0959 0006603  64.6274 295.5427 15.73979516341799
STARLINK-1262,45366,53.1534,0.0003562,15.32355733,466.34711239556054,471.2248603310454,1 45366U 20019G   26139.86250441  .00036811  00000+0  11679-2 0  9991,2 45366  53.1534 194.4702 0003562  13.7553 346.3545 15.32355733340659
STARLINK-1273,45367,53.0445,0.0006188,15.54377525,399.76592791016174,408.15945448799084,1 45367U 20019H   26139.48341607  .00066689  00000+0  99771-3 0  9991,2 45367  53.0445 175.3379 0006188 352.8649   7.2272 15.54377525340879
STARLINK-1277,45369,53.0428,0.0006714,15.60651053,381.2340126288227,390.31659406976087,1 45369U 20019K   26139.32619753  .00065001  00000+0  76943-3 0  9999,2 45369  53.0428 171.0647 0006714 341.9832  18.0941 15.60651053340928
STARLINK-1281,45370,53.1555,0.0004528,15.33270266,462.96405548868825,469.16216310766777,1 45370U 20019L   26139.88547728  .00031112  00000+0  96158-3 0  9990,2 45370  53.1555 194.1080 0004528  10.1530 349.9563 15.33270266340660
STARLINK-1300,45374,53.1566,0.0004239,15.33638497,462.0667320664743,467.86831608198463,1 45374U 20019Q   26139.44680204  .00024939  00000+0  76481-3 0  9999,2 45374  53.1566 196.1191 0004239  25.6971 334.4241 15.33638497340598
STARLINK-1302,45375,53.0444,0.0005293,15.65231831,368.99894882641365,376.14524947877635,1 45375U 20019R   26139.36956425  .00028630  00000+0  28786-3 0  9999,2 45375  53.0444 167.4701 0005293   8.7772 351.3334 15.65231831340972
STARLINK-1304,45376,53.0416,0.000628,15.59980348,383.4649480975977,391.9628568310927,1 45376U 20019S   26139.37494376  .00065066  00000+0  79028-3 0  9992,2 45376  53.0416 168.0792 0006280   6.9725 353.1373 15.59980348340963
STARLINK-1305,45377,53.0371,0.000142,15.67830586,364.1527445521888,366.0678267813182,1 45377U 20019T   26140.00002315  .01462957  00000+0  11688-1 0  9990,2 45377  53.0371 144.7837 0001420  86.4718 215.7266 15.67830586  5971
STARLINK-1319,45379,53.0393,0.0005187,15.74124199,343.6361371540479,350.61292346559094,1 45379U 20019V   26139.98049962  .00060627  00000+0  41613-3 0  9996,2 45379  53.0393 137.3433 0005187  29.3049 330.8260 15.74124199341457
STARLINK-1266,45383,53.0437,0.0005718,15.56217148,394.7418887217218,402.49178440921787,1 45383U 20019Z   26139.72971892  .00074525  00000+0  10404-2 0  9994,2 45383  53.0437 151.5049 0005718   0.3749 359.7265 15.56217148341225
STARLINK-1267,45384,53.0446,0.0007795,15.62307364,375.72511894842773,386.26260396143516,1 45384U 20019AA  26139.71128677  .00072533  00000+0  80376-3 0  9992,2 45384  53.0446 142.9790 0007795  39.0920 321.0655 15.62307364341345
STARLINK-1272,45386,53.0399,0.0008794,15.67377495,360.4786086536451,372.3409175005454,1 45386U 20019AC  26139.65992586  .00041020  00000+0  37524-3 0  9999,2 45386  53.0399 122.6482 0008794  31.1595 328.9940 15.67377495341629
STARLINK-1274,45387,53.0209,0.0009415,15.58194079,386.5087839825883,399.2586159606353,1 45387U 20019AD  26139.64532500  .00083085  00000+0  10743-2 0  9995,2 45387  53.0209 120.7714 0009415  54.8884 305.3008 15.58194079341642
STARLINK-1280,45388,53.0371,0.0006085,15.74749352,341.25328550457925,349.43576251930244,1 45388U 20019AE  26139.68218675  .00061543  00000+0  41094-3 0  9993,2 45388  53.0371 131.3000 0006085  39.3712 320.7748 15.74749352341490
STARLINK-1283,45389,53.0389,0.0004589,15.68544573,359.9702840864484,366.15735820009377,1 45389U 20019AF  26139.24750209  .00037663  00000+0  32956-3 0  9993,2 45389  53.0389 123.9536 0004589  55.1090 305.0357 15.68544573341575
STARLINK-1284,45390,53.0395,0.0005152,15.67583342,362.34482434985875,369.29379693234387,1 45390U 20019AG  26139.31488353  .00034407  00000+0  31360-3 0  9992,2 45390  53.0395 147.3436 0005152 347.6517  12.4371 15.67583342341248
STARLINK-1297,45395,53.0409,0.0006907,15.66071897,365.4967105665055,374.81880494486904,1 45395U 20019AM  26139.94764256  .00041622  00000+0  40147-3 0  9995,2 45395  53.0409 143.0336 0006907 357.7861   2.3123 15.66071897340545
STARLINK-1307,45397,53.0516,0.000255,15.55194628,399.85809919609983,403.3157583997854,1 45397U 20019AP  26139.73641977  .00023027  00000+0  34100-3 0  9999,2 45397  53.0516 148.3879 0002550  38.6406 321.4786 15.55194628341093
STARLINK-1255,45399,53.0359,0.0006516,15.63138256,374.1957328396111,383.00111044109326,1 45399U 20019AR  26139.24395719  .00076767  00000+0  82315-3 0  9997,2 45399  53.0359 119.9234 0006516  44.6570 315.4967 15.63138256341430
STARLINK-1260,45404,53.1558,0.0005964,15.35856159,454.30135073702695,462.4559466027604,1 45404U 20019AW  26139.76716247  .00031610  00000+0  89972-3 0  9998,2 45404  53.1558 157.7457 0005964  19.7883 340.3350 15.35856159340870
STARLINK-1263,45405,53.1568,0.0004513,15.33327297,462.80468727825155,468.98210911566457,1 45405U 20019AX  26139.76943351  .00028074  00000+0  86759-3 0  9997,2 45405  53.1568 158.6294 0004513  36.6320 323.4990 15.33327297340869
STARLINK-1265,45406,53.1563,0.0005486,15.36197062,453.61724318167035,461.1171583907717,1 45406U 20019AY  26139.37396526  .00017305  00000+0  49305-3 0  9992,2 45406  53.1563 159.6290 0005486  11.1255 348.9869 15.36197062340817
STARLINK-1278,45408,53.0393,0.0007057,15.66852174,363.15649163779744,372.6778725103768,1 45408U 20019BA  26139.72991378  .00037908  00000+0  35498-3 0  9998,2 45408  53.0393 143.1680 0007057  17.3853 342.7402 15.66852174341066
STARLINK-1296,45412,53.1545,0.0006317,15.36432279,452.3519905443072,460.9870851242076,1 45412U 20019BE  26139.74158315  .00043905  00000+0  12206-2 0  9996,2 45412  53.1545 157.6273 0006317  11.1064 349.0078 15.36432279340877
STARLINK-1309,45414,53.0601,0.0006808,15.66133596,365.38640211704023,374.5746389329879,1 45414U 20019BG  26139.42052980  .00032085  00000+0  31032-3 0  9990,2 45414  53.0601 138.4632 0006808 355.6248   4.4707 15.66133596341080
